{"type": "FeatureCollection", "features": [ {"type": "Feature", "properties": {"norad_id": 37216, "name": "COSMO-SKYMED 4", "group": "resource", "lat": 81.0132469176858, "lon": 101.04404102882678, "alt_km": 614.1369962502431, "timestamp": "2025-12-06T18:50:09.827634+00:00", "meta": {"OBJECT_NAME": "COSMO-SKYMED 4", "OBJECT_ID": "2010-060A", "EPOCH": "2025-12-06T05:29:20.523264", "MEAN_MOTION": 14.82156569, "ECCENTRICITY": 0.0001368, "INCLINATION": 97.8814, "RA_OF_ASC_NODE": 161.6501, "ARG_OF_PERICENTER": 82.9931, "MEAN_ANOMALY": 277.1438, "EPHEMERIS_TYPE": 0, "CLASSIFICATION_TYPE": "U", "NORAD_CAT_ID": 37216, "ELEMENT_SET_NO": 999, "REV_AT_EPOCH": 81598, "BSTAR": 0.00015237852, "MEAN_MOTION_DOT": 1.161e-05, "MEAN_MOTION_DDOT": 0}, "tle": {"line1": "1 37216U 10060A   25340.22870976  .00001161  00000+0  15238-3 0  9991", "line2": "2 37216  97.8814 161.6501 0001368  82.9931 277.1438 14.82156569815988"}}, "geometry": {"type": "Point", "coordinates": [101.04404102882678, 81.0132469176858]}}, {"type": "Feature", "properties": {"norad_id": 37387, "name": "RESOURCESAT-2", "group": "resource", "lat": -80.64079021916521, "lon": 154.5401364751715, "alt_km": 831.5071088373315, "timestamp": "2025-12-06T18:50:09.827645+00:00", "meta": {"OBJECT_NAME": "RESOURCESAT-2", "OBJECT_ID": "2011-015A", "EPOCH": "2025-12-06T05:45:38.140128", "MEAN_MOTION": 14.21593419, "ECCENTRICITY": 0.00066906, "INCLINATION": 98.7886, "RA_OF_ASC_NODE": 43.8209, "ARG_OF_PERICENTER": 59.3985, "MEAN_ANOMALY": 300.7851, "EPHEMERIS_TYPE": 0, "CLASSIFICATION_TYPE": "U", "NORAD_CAT_ID": 37387, "ELEMENT_SET_NO": 999, "REV_AT_EPOCH": 75876, "BSTAR": 0.00017951342, "MEAN_MOTION_DOT": 3.49e-06, "MEAN_MOTION_DDOT": 0}, "tle": {"line1": "1 37387U 11015A   25340.24002477  .00000349  00000+0  17951-3 0  9997", "line2": "2 37387  98.7886  43.8209 0006690  59.3985 300.7851 14.21593419758768"}}, "geometry": {"type": "Point", "coordinates": [154.5401364751715, -80.64079021916521]}}, {"type": "Feature", "properties": {"norad_id": 37781, "name": "HAIYANG-2A", "group": "resource", "lat": 29.53574554573455, "lon": 167.16018617564617, "alt_km": 965.7977963546464, "timestamp": "2025-12-06T18:50:09.827655+00:00", "meta": {"OBJECT_NAME": "HAIYANG-2A", "OBJECT_ID": "2011-043A", "EPOCH": "2025-12-06T05:55:14.883456", "MEAN_MOTION": 13.78834588, "ECCENTRICITY": 0.00016516, "INCLINATION": 99.3377, "RA_OF_ASC_NODE": 341.2813, "ARG_OF_PERICENTER": 93.6112, "MEAN_ANOMALY": 266.5228, "EPHEMERIS_TYPE": 0, "CLASSIFICATION_TYPE": "U", "NORAD_CAT_ID": 37781, "ELEMENT_SET_NO": 999, "REV_AT_EPOCH": 72009, "BSTAR": 5.7231716e-05, "MEAN_MOTION_DOT": 1.4e-07, "MEAN_MOTION_DDOT": 0}, "tle": {"line1": "1 37781U 11043A   25340.24670004  .00000014  00000+0  57232-4 0  9999", "line2": "2 37781  99.3377 341.2813 0001651  93.6112 266.5228 13.78834588720097"}}, "geometry": {"type": "Point", "coordinates": [167.16018617564617, 29.53574554573455]}}, {"type": "Feature", "properties": {"norad_id": 37791, "name": "RASAT", "group": "resource", "lat": 19.115653754477744, "lon": -107.05187278559659, "alt_km": 664.6674648717544, "timestamp": "2025-12-06T18:50:09.827665+00:00", "meta": {"OBJECT_NAME": "RASAT", "OBJECT_ID": "2011-044D", "EPOCH": "2025-12-06T06:55:25.671648", "MEAN_MOTION": 14.67896093, "ECCENTRICITY": 0.00219467, "INCLINATION": 98.0657, "RA_OF_ASC_NODE": 69.6421, "ARG_OF_PERICENTER": 84.4829, "MEAN_ANOMALY": 334.5238, "EPHEMERIS_TYPE": 0, "CLASSIFICATION_TYPE": "U", "NORAD_CAT_ID": 37791, "ELEMENT_SET_NO": 999, "REV_AT_EPOCH": 76488, "BSTAR": 0.00024095281, "MEAN_MOTION_DOT": 1.334e-05, "MEAN_MOTION_DDOT": 0}, "tle": {"line1": "1 37791U 11044D   25340.28849157  .00001334  00000+0  24095-3 0  9998", "line2": "2 37791  98.0657  69.6421 0021946  84.4829 334.5238 14.67896093764883"}}, "geometry": {"type": "Point", "coordinates": [-107.05187278559659, 19.115653754477744]}}, {"type": "Feature", "properties": {"norad_id": 37841, "name": "SRMSAT", "group": "resource", "lat": -3.5367770711221946, "lon": 134.1962320093029, "alt_km": 854.1415886684954, "timestamp": "2025-12-06T18:50:09.827676+00:00", "meta": {"OBJECT_NAME": "SRMSAT", "OBJECT_ID": "2011-058D", "EPOCH": "2025-12-06T04:24:56.937312", "MEAN_MOTION": 14.11507978, "ECCENTRICITY": 0.0011713, "INCLINATION": 19.9698, "RA_OF_ASC_NODE": 147.6293, "ARG_OF_PERICENTER": 240.665, "MEAN_ANOMALY": 289.0818, "EPHEMERIS_TYPE": 0, "CLASSIFICATION_TYPE": "U", "NORAD_CAT_ID": 37841, "ELEMENT_SET_NO": 999, "REV_AT_EPOCH": 73051, "BSTAR": 0.00014726357, "MEAN_MOTION_DOT": 5.36e-06, "MEAN_MOTION_DDOT": 0}, "tle": {"line1": "1 37841U 11058D   25340.18399233  .00000536  00000+0  14726-3 0  9996", "line2": "2 37841  19.9698 147.6293 0011713 240.6650 289.0818 14.11507978730510"}}, "geometry": {"type": "Point", "coordinates": [134.1962320093029, -3.5367770711221946]}}, {"type": "Feature", "properties": {"norad_id": 38012, "name": "PLEIADES 1A", "group": "resource", "lat": 24.128629567918143, "lon": -122.65926867113893, "alt_km": 697.0441637775903, "timestamp": "2025-12-06T18:50:09.827687+00:00", "meta": {"OBJECT_NAME": "PLEIADES 1A", "OBJECT_ID": "2011-076F", "EPOCH": "2025-12-06T06:47:23.510400", "MEAN_MOTION": 14.58552287, "ECCENTRICITY": 0.00013651, "INCLINATION": 98.1832, "RA_OF_ASC_NODE": 53.151, "ARG_OF_PERICENTER": 79.7051, "MEAN_ANOMALY": 321.8414, "EPHEMERIS_TYPE": 0, "CLASSIFICATION_TYPE": "U", "NORAD_CAT_ID": 38012, "ELEMENT_SET_NO": 999, "REV_AT_EPOCH": 74387, "BSTAR": 0.00020497057, "MEAN_MOTION_DOT": 9.07e-06, "MEAN_MOTION_DDOT": 0}, "tle": {"line1": "1 38012U 11076F   25340.28291100  .00000907  00000+0  20497-3 0  9996", "line2": "2 38012  98.1832  53.1510 0001365  79.7051 321.8414 14.58552287743875"}}, "geometry": {"type": "Point", "coordinates": [-122.65926867113893, 24.128629567918143]}}, {"type": "Feature", "properties": {"norad_id": 38038, "name": "ZIYUAN 1-02C (ZY 1-02C)", "group": "resource", "lat": 36.367605954041814, "lon": -126.81903631090417, "alt_km": 757.6959841784965, "timestamp": "2025-12-06T18:50:09.827697+00:00", "meta": {"OBJECT_NAME": "ZIYUAN 1-02C (ZY 1-02C)", "OBJECT_ID": "2011-079A", "EPOCH": "2025-12-06T06:41:27.674592", "MEAN_MOTION": 14.38001463, "ECCENTRICITY": 0.00069194, "INCLINATION": 98.4344, "RA_OF_ASC_NODE": 46.4114, "ARG_OF_PERICENTER": 156.3665, "MEAN_ANOMALY": 248.5533, "EPHEMERIS_TYPE": 0, "CLASSIFICATION_TYPE": "U", "NORAD_CAT_ID": 38038, "ELEMENT_SET_NO": 999, "REV_AT_EPOCH": 73148, "BSTAR": 0.0003546244, "MEAN_MOTION_DOT": 1.03e-05, "MEAN_MOTION_DDOT": 0}, "tle": {"line1": "1 38038U 11079A   25340.27879253  .00001030  00000+0  35462-3 0  9993", "line2": "2 38038  98.4344  46.4114 0006919 156.3665 248.5533 14.38001463731486"}}, "geometry": {"type": "Point", "coordinates": [-126.81903631090417, 36.367605954041814]}}, {"type": "Feature", "properties": {"norad_id": 38046, "name": "ZIYUAN 3-1 (ZY 3-1)", "group": "resource", "lat": 36.1635467433256, "lon": 41.78393613028629, "alt_km": 362.4852744836153, "timestamp": "2025-12-06T18:50:09.827707+00:00", "meta": {"OBJECT_NAME": "ZIYUAN 3-1 (ZY 3-1)", "OBJECT_ID": "2012-001A", "EPOCH": "2025-12-06T06:25:23.414304", "MEAN_MOTION": 15.67354636, "ECCENTRICITY": 0.00020561, "INCLINATION": 97.1765, "RA_OF_ASC_NODE": 46.5397, "ARG_OF_PERICENTER": 19.9797, "MEAN_ANOMALY": 340.1544, "EPHEMERIS_TYPE": 0, "CLASSIFICATION_TYPE": "U", "NORAD_CAT_ID": 38046, "ELEMENT_SET_NO": 999, "REV_AT_EPOCH": 77395, "BSTAR": 0.00087435278, "MEAN_MOTION_DOT": 0.00094976, "MEAN_MOTION_DDOT": 0}, "tle": {"line1": "1 38046U 12001A   25340.26763211  .00094976  00000+0  87435-3 0  9991", "line2": "2 38046  97.1765  46.5397 0002056  19.9797 340.1544 15.67354636773955"}}, "geometry": {"type": "Point", "coordinates": [41.78393613028629, 36.1635467433256]}}, {"type": "Feature", "properties": {"norad_id": 38338, "name": "ARIRANG-3 (KOMPSAT-3)", "group": "resource", "lat": -14.577032176729483, "lon": -62.4864505214977, "alt_km": 688.3393087819495, "timestamp": "2025-12-06T18:50:09.827718+00:00", "meta": {"OBJECT_NAME": "ARIRANG-3 (KOMPSAT-3)", "OBJECT_ID": "2012-025B", "EPOCH": "2025-12-06T04:07:01.839648", "MEAN_MOTION": 14.61698822, "ECCENTRICITY": 0.0005827, "INCLINATION": 98.3314, "RA_OF_ASC_NODE": 294.7118, "ARG_OF_PERICENTER": 359.8745, "MEAN_ANOMALY": 0.2453, "EPHEMERIS_TYPE": 0, "CLASSIFICATION_TYPE": "U", "NORAD_CAT_ID": 38338, "ELEMENT_SET_NO": 999, "REV_AT_EPOCH": 72314, "BSTAR": 0.00023825877, "MEAN_MOTION_DOT": 1.138e-05, "MEAN_MOTION_DDOT": 0}, "tle": {"line1": "1 38338U 12025B   25340.17154907  .00001138  00000+0  23826-3 0  9999", "line2": "2 38338  98.3314 294.7118 0005827 359.8745   0.2453 14.61698822723148"}}, "geometry": {"type": "Point", "coordinates": [-62.4864505214977, -14.577032176729483]}}, {"type": "Feature", "properties": {"norad_id": 38709, "name": "EXACTVIEW-1 (ADS-1B)", "group": "resource", "lat": 49.88562814080937, "lon": 78.25246668438875, "alt_km": 798.1174101241577, "timestamp": "2025-12-06T18:50:09.827729+00:00", "meta": {"OBJECT_NAME": "EXACTVIEW-1 (ADS-1B)", "OBJECT_ID": "2012-039C", "EPOCH": "2025-12-06T06:48:08.630208", "MEAN_MOTION": 14.24903906, "ECCENTRICITY": 0.0011011, "INCLINATION": 98.9635, "RA_OF_ASC_NODE": 88.5381, "ARG_OF_PERICENTER": 12.6195, "MEAN_ANOMALY": 347.5257, "EPHEMERIS_TYPE": 0, "CLASSIFICATION_TYPE": "U", "NORAD_CAT_ID": 38709, "ELEMENT_SET_NO": 999, "REV_AT_EPOCH": 69523, "BSTAR": 0.00016500663, "MEAN_MOTION_DOT": 3.39e-06, "MEAN_MOTION_DDOT": 0}, "tle": {"line1": "1 38709U 12039C   25340.28343322  .00000339  00000+0  16501-3 0  9993", "line2": "2 38709  98.9635  88.5381 0011011  12.6195 347.5257 14.24903906695236"}}, "geometry": {"type": "Point", "coordinates": [78.25246668438875, 49.88562814080937]}}]}